SL-4 R/B                
1 39679U 14021B   26040.57120369  .00011498  00000+0  26325-3 0  9990
2 39679  51.6061 114.3519 0098934   0.5164 359.5905 15.38272354651949
ALOS-2                  
1 39766U 14029A   26040.17776193  .00000772  00000+0  11021-3 0  9993
2 39766  97.9210 139.1853 0001503  96.1098 264.0285 14.79501772632655
YAOGAN-29               
1 41038U 15069A   26040.59080132  .00000503  00000+0  68686-4 0  9992
2 41038  98.0178  68.9414 0002916  81.8101 278.3443 14.82963913551716
ASTRO-H (HITOMI)        
1 41337U 16012A   26040.60459856  .00003832  00000+0  22554-3 0  9999
2 41337  30.9979 177.7561 0009883  50.0333 310.1172 15.09798989547986
HXMT (HUIYAN)           
1 42758U 17034A   26040.60198500  .00006215  00000+0  31611-3 0  9990
2 42758  43.0126 172.7832 0030820  55.6310 304.7447 15.17088740478275
CZ-2C R/B               
1 43521U 18054D   26040.57272594  .00371057  55581-4  81560-3 0  9990
2 43521  35.1286 136.6183 0012586  31.1962 328.9523 15.96882984424387
SAOCOM 1A               
1 43641U 18076A   26040.60857212  .00000714  00000+0  96266-4 0  9997
2 43641  97.8873 229.1791 0001380  84.9402 275.1968 14.82159916397207
H-2A R/B                
1 43682U 18084L   26040.54621040  .00021001  00000+0  52013-3 0  9995
2 43682  98.8763 251.9452 0026293 119.8258 240.5602 15.40107412401447
SAOCOM 1B               
1 46265U 20059A   26040.57229575  .00000257  00000+0  38843-4 0  9996
2 46265  97.8872 228.2417 0001356  84.9416 275.1952 14.82165988294580
CSS (TIANHE)            
1 48274U 21035A   26040.41958423  .00018345  00000+0  22932-3 0  9995
2 48274  41.4684  20.0103 0004697  39.0740 321.0437 15.59384169273192
COSMOS 2550             
1 48865U 21056A   26040.60848833 -.00000111  00000+0  24673-5 0  9997
2 48865  67.1449 125.8734 0008413 270.4573  89.5617 15.33829266259151
CZ-2C R/B               
1 52794U 22058K   26040.39773928  .00033074  00000+0  52000-3 0  9990
2 52794  50.1885 103.5986 0042305  80.5036 280.0712 15.52239416205739
