CCSDS_OMM_VERS = 2.0
CREATION_DATE  = 
ORIGINATOR     = 

OBJECT_NAME    = SL-4 R/B
OBJECT_ID      = 2014-021B
CENTER_NAME    = EARTH
REF_FRAME      = TEME
TIME_SYSTEM    = UTC
MEAN_ELEMENT_THEORY = SGP/SGP4

EPOCH          = 2026-02-09T13:42:31.998816
MEAN_MOTION    = 15.38272354
ECCENTRICITY   = .00989343
INCLINATION    = 51.6061
RA_OF_ASC_NODE = 114.3519
ARG_OF_PERICENTER = 0.5164
MEAN_ANOMALY   = 359.5905

EPHEMERIS_TYPE = 0
CLASSIFICATION_TYPE = U
NORAD_CAT_ID   = 39679
ELEMENT_SET_NO = 999
REV_AT_EPOCH   = 65194
BSTAR          = .2632464E-3
MEAN_MOTION_DOT = .11498E-3
MEAN_MOTION_DDOT = 0

CCSDS_OMM_VERS = 2.0
CREATION_DATE  = 
ORIGINATOR     = 

OBJECT_NAME    = ALOS-2
OBJECT_ID      = 2014-029A
CENTER_NAME    = EARTH
REF_FRAME      = TEME
TIME_SYSTEM    = UTC
MEAN_ELEMENT_THEORY = SGP/SGP4

EPOCH          = 2026-02-09T04:15:58.630752
MEAN_MOTION    = 14.79501772
ECCENTRICITY   = .00015039
INCLINATION    = 97.9210
RA_OF_ASC_NODE = 139.1853
ARG_OF_PERICENTER = 96.1098
MEAN_ANOMALY   = 264.0285

EPHEMERIS_TYPE = 0
CLASSIFICATION_TYPE = U
NORAD_CAT_ID   = 39766
ELEMENT_SET_NO = 999
REV_AT_EPOCH   = 63265
BSTAR          = .11020671E-3
MEAN_MOTION_DOT = .772E-5
MEAN_MOTION_DDOT = 0

CCSDS_OMM_VERS = 2.0
CREATION_DATE  = 
ORIGINATOR     = 

OBJECT_NAME    = YAOGAN-29
OBJECT_ID      = 2015-069A
CENTER_NAME    = EARTH
REF_FRAME      = TEME
TIME_SYSTEM    = UTC
MEAN_ELEMENT_THEORY = SGP/SGP4

EPOCH          = 2026-02-09T14:10:45.234048
MEAN_MOTION    = 14.82963913
ECCENTRICITY   = .00029161
INCLINATION    = 98.0178
RA_OF_ASC_NODE = 68.9414
ARG_OF_PERICENTER = 81.8101
MEAN_ANOMALY   = 278.3443

EPHEMERIS_TYPE = 0
CLASSIFICATION_TYPE = U
NORAD_CAT_ID   = 41038
ELEMENT_SET_NO = 999
REV_AT_EPOCH   = 55171
BSTAR          = .68685558E-4
MEAN_MOTION_DOT = .503E-5
MEAN_MOTION_DDOT = 0

CCSDS_OMM_VERS = 2.0
CREATION_DATE  = 
ORIGINATOR     = 

OBJECT_NAME    = ASTRO-H (HITOMI)
OBJECT_ID      = 2016-012A
CENTER_NAME    = EARTH
REF_FRAME      = TEME
TIME_SYSTEM    = UTC
MEAN_ELEMENT_THEORY = SGP/SGP4

EPOCH          = 2026-02-09T14:30:37.315584
MEAN_MOTION    = 15.09798989
ECCENTRICITY   = .00098838
INCLINATION    = 30.9979
RA_OF_ASC_NODE = 177.7561
ARG_OF_PERICENTER = 50.0333
MEAN_ANOMALY   = 310.1172

EPHEMERIS_TYPE = 0
CLASSIFICATION_TYPE = U
NORAD_CAT_ID   = 41337
ELEMENT_SET_NO = 999
REV_AT_EPOCH   = 54798
BSTAR          = .22554284E-3
MEAN_MOTION_DOT = .3832E-4
MEAN_MOTION_DDOT = 0

CCSDS_OMM_VERS = 2.0
CREATION_DATE  = 
ORIGINATOR     = 

OBJECT_NAME    = HXMT (HUIYAN)
OBJECT_ID      = 2017-034A
CENTER_NAME    = EARTH
REF_FRAME      = TEME
TIME_SYSTEM    = UTC
MEAN_ELEMENT_THEORY = SGP/SGP4

EPOCH          = 2026-02-09T14:26:51.504000
MEAN_MOTION    = 15.17088740
ECCENTRICITY   = .00308205
INCLINATION    = 43.0126
RA_OF_ASC_NODE = 172.7832
ARG_OF_PERICENTER = 55.6310
MEAN_ANOMALY   = 304.7447

EPHEMERIS_TYPE = 0
CLASSIFICATION_TYPE = U
NORAD_CAT_ID   = 42758
ELEMENT_SET_NO = 999
REV_AT_EPOCH   = 47827
BSTAR          = .31610944E-3
MEAN_MOTION_DOT = .6215E-4
MEAN_MOTION_DDOT = 0

CCSDS_OMM_VERS = 2.0
CREATION_DATE  = 
ORIGINATOR     = 

OBJECT_NAME    = CZ-2C R/B
OBJECT_ID      = 2018-054D
CENTER_NAME    = EARTH
REF_FRAME      = TEME
TIME_SYSTEM    = UTC
MEAN_ELEMENT_THEORY = SGP/SGP4

EPOCH          = 2026-02-09T13:44:43.521216
MEAN_MOTION    = 15.96882984
ECCENTRICITY   = .00125865
INCLINATION    = 35.1286
RA_OF_ASC_NODE = 136.6183
ARG_OF_PERICENTER = 31.1962
MEAN_ANOMALY   = 328.9523

EPHEMERIS_TYPE = 0
CLASSIFICATION_TYPE = U
NORAD_CAT_ID   = 43521
ELEMENT_SET_NO = 999
REV_AT_EPOCH   = 42438
BSTAR          = .81559969E-3
MEAN_MOTION_DOT = .371057E-2
MEAN_MOTION_DDOT = .55580903E-4

CCSDS_OMM_VERS = 2.0
CREATION_DATE  = 
ORIGINATOR     = 

OBJECT_NAME    = SAOCOM 1A
OBJECT_ID      = 2018-076A
CENTER_NAME    = EARTH
REF_FRAME      = TEME
TIME_SYSTEM    = UTC
MEAN_ELEMENT_THEORY = SGP/SGP4

EPOCH          = 2026-02-09T14:36:20.631168
MEAN_MOTION    = 14.82159916
ECCENTRICITY   = .00013801
INCLINATION    = 97.8873
RA_OF_ASC_NODE = 229.1791
ARG_OF_PERICENTER = 84.9402
MEAN_ANOMALY   = 275.1968

EPHEMERIS_TYPE = 0
CLASSIFICATION_TYPE = U
NORAD_CAT_ID   = 43641
ELEMENT_SET_NO = 999
REV_AT_EPOCH   = 39720
BSTAR          = .96265956E-4
MEAN_MOTION_DOT = .714E-5
MEAN_MOTION_DDOT = 0

CCSDS_OMM_VERS = 2.0
CREATION_DATE  = 
ORIGINATOR     = 

OBJECT_NAME    = H-2A R/B
OBJECT_ID      = 2018-084L
CENTER_NAME    = EARTH
REF_FRAME      = TEME
TIME_SYSTEM    = UTC
MEAN_ELEMENT_THEORY = SGP/SGP4

EPOCH          = 2026-02-09T13:06:32.578560
MEAN_MOTION    = 15.40107412
ECCENTRICITY   = .0026293
INCLINATION    = 98.8763
RA_OF_ASC_NODE = 251.9452
ARG_OF_PERICENTER = 119.8258
MEAN_ANOMALY   = 240.5602

EPHEMERIS_TYPE = 0
CLASSIFICATION_TYPE = U
NORAD_CAT_ID   = 43682
ELEMENT_SET_NO = 999
REV_AT_EPOCH   = 40144
BSTAR          = .52013368E-3
MEAN_MOTION_DOT = .21001E-3
MEAN_MOTION_DDOT = 0

CCSDS_OMM_VERS = 2.0
CREATION_DATE  = 
ORIGINATOR     = 

OBJECT_NAME    = SAOCOM 1B
OBJECT_ID      = 2020-059A
CENTER_NAME    = EARTH
REF_FRAME      = TEME
TIME_SYSTEM    = UTC
MEAN_ELEMENT_THEORY = SGP/SGP4

EPOCH          = 2026-02-09T13:44:06.352800
MEAN_MOTION    = 14.82165988
ECCENTRICITY   = .00013565
INCLINATION    = 97.8872
RA_OF_ASC_NODE = 228.2417
ARG_OF_PERICENTER = 84.9416
MEAN_ANOMALY   = 275.1952

EPHEMERIS_TYPE = 0
CLASSIFICATION_TYPE = U
NORAD_CAT_ID   = 46265
ELEMENT_SET_NO = 999
REV_AT_EPOCH   = 29458
BSTAR          = .38843124E-4
MEAN_MOTION_DOT = .257E-5
MEAN_MOTION_DDOT = 0

CCSDS_OMM_VERS = 2.0
CREATION_DATE  = 
ORIGINATOR     = 

OBJECT_NAME    = CSS (TIANHE)
OBJECT_ID      = 2021-035A
CENTER_NAME    = EARTH
REF_FRAME      = TEME
TIME_SYSTEM    = UTC
MEAN_ELEMENT_THEORY = SGP/SGP4

EPOCH          = 2026-02-09T10:04:12.077472
MEAN_MOTION    = 15.59384169
ECCENTRICITY   = .00046973
INCLINATION    = 41.4684
RA_OF_ASC_NODE = 20.0103
ARG_OF_PERICENTER = 39.0740
MEAN_ANOMALY   = 321.0437

EPHEMERIS_TYPE = 0
CLASSIFICATION_TYPE = U
NORAD_CAT_ID   = 48274
ELEMENT_SET_NO = 999
REV_AT_EPOCH   = 27319
BSTAR          = .22931724E-3
MEAN_MOTION_DOT = .18345E-3
MEAN_MOTION_DDOT = 0

CCSDS_OMM_VERS = 2.0
CREATION_DATE  = 
ORIGINATOR     = 

OBJECT_NAME    = COSMOS 2550
OBJECT_ID      = 2021-056A
CENTER_NAME    = EARTH
REF_FRAME      = TEME
TIME_SYSTEM    = UTC
MEAN_ELEMENT_THEORY = SGP/SGP4

EPOCH          = 2026-02-09T14:36:13.391712
MEAN_MOTION    = 15.33829266
ECCENTRICITY   = .00084132
INCLINATION    = 67.1449
RA_OF_ASC_NODE = 125.8734
ARG_OF_PERICENTER = 270.4573
MEAN_ANOMALY   = 89.5617

EPHEMERIS_TYPE = 0
CLASSIFICATION_TYPE = U
NORAD_CAT_ID   = 48865
ELEMENT_SET_NO = 999
REV_AT_EPOCH   = 25915
BSTAR          = .2467346E-5
MEAN_MOTION_DOT = -.111E-5
MEAN_MOTION_DDOT = 0

CCSDS_OMM_VERS = 2.0
CREATION_DATE  = 
ORIGINATOR     = 

OBJECT_NAME    = CZ-2C R/B
OBJECT_ID      = 2022-058K
CENTER_NAME    = EARTH
REF_FRAME      = TEME
TIME_SYSTEM    = UTC
MEAN_ELEMENT_THEORY = SGP/SGP4

EPOCH          = 2026-02-09T09:32:44.673792
MEAN_MOTION    = 15.52239416
ECCENTRICITY   = .00423059
INCLINATION    = 50.1885
RA_OF_ASC_NODE = 103.5986
ARG_OF_PERICENTER = 80.5036
MEAN_ANOMALY   = 280.0712

EPHEMERIS_TYPE = 0
CLASSIFICATION_TYPE = U
NORAD_CAT_ID   = 52794
ELEMENT_SET_NO = 999
REV_AT_EPOCH   = 20573
BSTAR          = .5200045E-3
MEAN_MOTION_DOT = .33074E-3
MEAN_MOTION_DDOT = 0

